ONEWEB-0412             
1 50489U 21132W   23261.54796272  .00000069  00000+0  14330-3 0  9999
2 50489  87.9242 174.8611 0002050  92.8940 267.2427 13.18688272 89516
ONEWEB-0413             
1 50490U 21132X   23261.32453664  .00000063  00000+0  12782-3 0  9995
2 50490  87.9304 174.8920 0002065  86.4731 273.6637 13.18685449 89420
ONEWEB-0414             
1 50491U 21132Y   23261.31084501  .00000009  00000+0 -10734-4 0  9992
2 50491  87.9299 174.8842 0001692  86.3786 273.7539 13.18686501 89456
ONEWEB-0417             
1 50492U 21132Z   23261.69760272 -.00000746  00000+0 -19262-2 0  9992
2 50492  87.9237 174.8457 0001309  75.4568 284.6709 13.18683478 90770
ONEWEB-0418             
1 50493U 21132AA  23261.71129153  .00000053  00000+0  10064-3 0  9994
2 50493  87.9301 174.8046 0001317  66.6351 293.4919 13.18685087 90823
ONEWEB-0419             
1 50494U 21132AB  23261.72501383  .00000074  00000+0  15522-3 0  9992
2 50494  87.9298 174.8271 0001751  61.0700 299.0608 13.18684039 90753
ONEWEB-0420             
1 50495U 21132AC  23261.31190774  .00000087  00000+0  18895-3 0  9996
2 50495  87.9297 174.9167 0002234  70.5292 289.6082 13.18685899 89402
ONEWEB-0421             
1 50496U 21132AD  23261.30557560  .00000026  00000+0  34026-4 0  9994
2 50496  87.9244 174.9120 0001841  90.3178 269.8165 13.18687657 89440
